H1 CPF  1  DLR 2021 09 09 10  7522 technosat            
H2  1704205 6203    42829 2021 09 09 00 00 00 2021 09 16 00 00 00    60 1 1  0 0 0
H9
10 0 59469  64800.000000  0      -5404252.207      -4006824.809       1865360.441
10 0 59469  64860.000000  0      -5349424.899      -3854395.329       2293766.572
10 0 59469  64920.000000  0      -5270728.867      -3686361.896       2712468.951
10 0 59469  64980.000000  0      -5168363.975      -3503639.544       3119697.299
10 0 59469  65040.000000  0      -5042638.127      -3307202.962       3513730.420
10 0 59469  65100.000000  0      -4893966.351      -3098081.331       3892903.558
10 0 59469  65160.000000  0      -4722869.321      -2877352.932       4255615.448
10 0 59469  65220.000000  0      -4529971.382      -2646139.560       4600334.995
10 0 59469  65280.000000  0      -4315998.145      -2405600.841       4925607.598
10 0 59469  65340.000000  0      -4081773.640      -2156928.438       5230061.140
10 0 59469  65400.000000  0      -3828217.040      -1901340.189       5512411.621
10 0 59469  65460.000000  0      -3556338.981      -1640074.195       5771468.450
10 0 59469  65520.000000  0      -3267237.419      -1374382.828       6006139.370
10 0 59469  65580.000000  0      -2962093.075      -1105526.725       6215434.909
10 0 59469  65640.000000  0      -2642164.500       -834768.812       6398472.385
10 0 59469  65700.000000  0      -2308782.791       -563368.351       6554479.426
10 0 59469  65760.000000  0      -1963345.973       -292575.154       6682796.992
10 0 59469  65820.000000  0      -1607313.161        -23623.953       6782881.951
10 0 59469  65880.000000  0      -1242198.465        242271.125       6854309.288
10 0 59469  65940.000000  0       -869564.631        503921.982       6896773.862
10 0 59469  66000.000000  0       -491016.424        760171.818       6910091.685
10 0 59469  66060.000000  0       -108193.808       1009900.209       6894200.728
10 0 59469  66120.000000  0        277235.052       1252027.975       6849161.293
10 0 59469  66180.000000  0        663581.004       1485521.874       6775155.905
10 0 59469  66240.000000  0       1049141.252       1709399.027       6672488.660
10 0 59469  66300.000000  0       1432206.778       1922731.048       6541584.132
10 0 59469  66360.000000  0       1811069.866       2124647.919       6382985.836
10 0 59469  66420.000000  0       2184031.666       2314341.585       6197354.234
10 0 59469  66480.000000  0       2549409.837       2491069.286       5985464.310
10 0 59469  66540.000000  0       2905546.240       2654156.582       5748202.621
10 0 59469  66600.000000  0       3250814.586       2803000.034       5486563.848
10 0 59469  66660.000000  0       3583628.000       2937069.564       5201646.838
10 0 59469  66720.000000  0       3902446.412       3055910.463       4894650.198
10 0 59469  66780.000000  0       4205783.821       3159145.024       4566867.506
10 0 59469  66840.000000  0       4492215.438       3246473.765       4219682.143
10 0 59469  66900.000000  0       4760384.788       3317676.410       3854561.738
10 0 59469  66960.000000  0       5009010.591       3372612.472       3473051.839
10 0 59469  67020.000000  0       5236893.040       3411221.182       3076769.278
10 0 59469  67080.000000  0       5442919.802       3433521.174       2667395.399
10 0 59469  67140.000000  0       5626071.733       3439609.815       2246668.857
10 0 59469  67200.000000  0       5785428.180       3429662.113       1816378.087
10 0 59469  67260.000000  0       5920171.845       3403929.221       1378353.502
10 0 59469  67320.000000  0       6029593.153       3362736.534        934459.436
10 0 59469  67380.000000  0       6113094.079       3306481.388        486585.885
10 0 59469  67440.000000  0       6170191.399       3235630.381         36640.152
10 0 59469  67500.000000  0       6200519.426       3150716.357       -413461.588
10 0 59469  67560.000000  0       6203832.171       3052335.001       -861802.797
10 0 59469  67620.000000  0       6180004.828       2941141.142      -1306475.042
10 0 59469  67680.000000  0       6129034.687       2817844.879      -1745586.348
10 0 59469  67740.000000  0       6051041.531       2683207.439      -2177269.574
10 0 59469  67800.000000  0       5946267.353       2538036.717      -2599690.655
10 0 59469  67860.000000  0       5815075.459       2383182.610      -3011056.594
10 0 59469  67920.000000  0       5657949.013       2219532.200      -3409623.232
10 0 59469  67980.000000  0       5475489.016       2048004.790      -3793702.785
10 0 59469  68040.000000  0       5268411.687       1869546.793      -4161671.122
10 0 59469  68100.000000  0       5037545.199       1685126.555      -4511974.651
10 0 59469  68160.000000  0       4783825.944       1495729.147      -4843136.708
10 0 59469  68220.000000  0       4508294.412       1302351.182      -5153763.620
10 0 59469  68280.000000  0       4212090.575       1105995.638      -5442550.409
10 0 59469  68340.000000  0       3896448.852        907666.714      -5708286.043
10 0 59469  68400.000000  0       3562692.670        708364.758      -5949858.298
10 0 59469  68460.000000  0       3212228.565        509081.297      -6166258.130
10 0 59469  68520.000000  0       2846540.022        310794.187      -6356583.513
10 0 59469  68580.000000  0       2467181.043        114462.913      -6520042.891
10 0 59469  68640.000000  0       2075769.415        -78975.951      -6655958.121
10 0 59469  68700.000000  0       1673979.821       -268613.105      -6763766.997
10 0 59469  68760.000000  0       1263536.627       -453570.729      -6843025.415
10 0 59469  68820.000000  0        846206.376       -633006.460      -6893408.927
10 0 59469  68880.000000  0        423790.220       -806117.106      -6914713.758
10 0 59469  68940.000000  0         -1883.719       -972142.134      -6906857.440
10 0 59469  69000.000000  0       -428968.113      -1130366.910      -6869879.018
10 0 59469  69060.000000  0       -855604.324      -1280125.696      -6803938.863
10 0 59469  69120.000000  0      -1279930.406      -1420804.388      -6709317.958
10 0 59469  69180.000000  0      -1700089.089      -1551842.986      -6586416.733
10 0 59469  69240.000000  0      -2114235.820      -1672737.782      -6435753.394
10 0 59469  69300.000000  0      -2520546.656      -1783043.196      -6257961.806
10 0 59469  69360.000000  0      -2917226.129      -1882373.390      -6053789.064
10 0 59469  69420.000000  0      -3302515.128      -1970403.597      -5824092.634
10 0 59469  69480.000000  0      -3674698.725      -2046871.159      -5569837.016
10 0 59469  69540.000000  0      -4032113.875      -2111576.228      -5292089.925
10 0 59469  69600.000000  0      -4373156.907      -2164382.160      -4992017.998
10 0 59469  69660.000000  0      -4696290.780      -2205215.583      -4670882.141
10 0 59469  69720.000000  0      -5000052.136      -2234066.174      -4330032.467
10 0 59469  69780.000000  0      -5283058.105      -2250986.118      -3970902.843
10 0 59469  69840.000000  0      -5544012.812      -2256089.256      -3595005.015
10 0 59469  69900.000000  0      -5781713.523      -2249549.899      -3203922.364
10 0 59469  69960.000000  0      -5995056.400      -2231601.340      -2799303.319
10 0 59469  70020.000000  0      -6183041.830      -2202534.067      -2382854.474
10 0 59469  70080.000000  0      -6344779.346      -2162693.686      -1956333.434
10 0 59469  70140.000000  0      -6479492.072      -2112478.562      -1521541.352
10 0 59469  70200.000000  0      -6586520.612      -2052337.176      -1080315.248
10 0 59469  70260.000000  0      -6665326.431      -1982765.244       -634520.173
10 0 59469  70320.000000  0      -6715494.690      -1904302.586       -186041.195
10 0 59469  70380.000000  0      -6736736.499      -1817529.761        263224.729
10 0 59469  70440.000000  0      -6728890.552      -1723064.496        711376.954
10 0 59469  70500.000000  0      -6691924.157      -1621557.937       1156519.365
10 0 59469  70560.000000  0      -6625933.640      -1513690.759       1596768.579
10 0 59469  70620.000000  0      -6531144.138      -1400169.142       2030262.086
10 0 59469  70680.000000  0      -6407908.758      -1281720.645       2455166.262
10 0 59469  70740.000000  0      -6256707.164      -1159089.981       2869684.227
10 0 59469  70800.000000  0      -6078143.601      -1033034.725       3272063.553
10 0 59469  70860.000000  0      -5872944.289       -904320.981       3660603.806
10 0 59469  70920.000000  0      -5641954.156       -773719.056       4033663.776
10 0 59469  70980.000000  0      -5386133.059       -641999.175       4389668.321
10 0 59469  71040.000000  0      -5106551.576       -509927.248       4727114.898
10 0 59469  71100.000000  0      -4804386.332       -378260.680       5044579.779
10 0 59469  71160.000000  0      -4480914.898       -247744.283       5340723.928
10 0 59469  71220.000000  0      -4137510.231       -119106.276       5614298.570
10 0 59469  71280.000000  0      -3775634.615          6945.563       5864150.296
10 0 59469  71340.000000  0      -3396833.298        129727.603       6089225.746
10 0 59469  71400.000000  0      -3002727.743        248583.897       6288575.846
10 0 59469  71460.000000  0      -2595008.634        362889.489       6461359.596
10 0 59469  71520.000000  0      -2175428.596        472053.534       6606847.515
10 0 59469  71580.000000  0      -1745794.597        575522.250       6724424.561
10 0 59469  71640.000000  0      -1307960.181        672781.648       6813592.544
10 0 59469  71700.000000  0       -863817.572        763360.008       6873972.121
10 0 59469  71760.000000  0       -415289.568        846830.115       6905304.358
10 0 59469  71820.000000  0         35678.676        922811.244       6907451.805
10 0 59469  71880.000000  0        487127.960        990970.890       6880399.144
10 0 59469  71940.000000  0        937093.472       1051026.259       6824253.380
99
